start=new Date('2022-09-21T00:00:00.000Z').valueOf();
sats=[{"REF_FRAME":"TEME","CENTER_NAME":"EARTH","ARG_OF_PERICENTER":"53.1618","OBJECT_NAME":"STARLINK-3771","TLE_LINE1":"1 52293U 22041AJ  22263.31675819  .00000569  00000-0  53796-4 0  9999","OBJECT_ID":"2022-041AJ","SITE":"AFETR","GP_ID":"213073183","PERIAPSIS":"538.887","ECCENTRICITY":"0.00012190","COUNTRY_CODE":"US","MEAN_MOTION_DOT":"0.00000569","MEAN_ELEMENT_THEORY":"SGP4","SEMIMAJOR_AXIS":"6917.865","PERIOD":"95.437","OBJECT_TYPE":"PAYLOAD","RA_OF_ASC_NODE":"24.0837","NORAD_CAT_ID":"52293","CLASSIFICATION_TYPE":"U","DECAY_DATE":null,"MEAN_ANOMALY":"306.9486","BSTAR":"0.00005379600000","TLE_LINE2":"2 52293  53.2193  24.0837 0001219  53.1618 306.9486 15.08844992 23323","EPHEMERIS_TYPE":"0","LAUNCH_DATE":"2022-04-21","REV_AT_EPOCH":"2332","MEAN_MOTION_DDOT":"0.0000000000000","RCS_SIZE":"LARGE","APOAPSIS":"540.573","TIME_SYSTEM":"UTC","EPOCH":"2022-09-20T07:36:07.907616","FILE":"3578736","MEAN_MOTION":"15.08844992","ELEMENT_SET_NO":"999","INCLINATION":"53.2193"},{"PERIOD":"95.438","MEAN_ELEMENT_THEORY":"SGP4","SEMIMAJOR_AXIS":"6917.892","COUNTRY_CODE":"US","ECCENTRICITY":"0.00018040","MEAN_MOTION_DOT":"-0.00000557","PERIAPSIS":"538.509","GP_ID":"213124422","SITE":"AFETR","CENTER_NAME":"EARTH","OBJECT_ID":"2022-041AK","TLE_LINE1":"1 52294U 22041AK  22263.69946886 -.00000557  00000-0 -16882-4 0  9990","OBJECT_NAME":"STARLINK-3777","ARG_OF_PERICENTER":"56.1783","REF_FRAME":"TEME","INCLINATION":"53.2206","MEAN_MOTION":"15.08836123","FILE":"3578945","ELEMENT_SET_NO":"999","RCS_SIZE":"MEDIUM","APOAPSIS":"541.005","TIME_SYSTEM":"UTC","MEAN_MOTION_DDOT":"0.0000000000000","EPOCH":"2022-09-20T16:47:14.109504","REV_AT_EPOCH":"2338","EPHEMERIS_TYPE":"0","LAUNCH_DATE":"2022-04-21","BSTAR":"-0.00001688200000","TLE_LINE2":"2 52294  53.2206  22.3645 0001804  56.1783 303.9381 15.08836123 23387","CLASSIFICATION_TYPE":"U","OBJECT_TYPE":"PAYLOAD","RA_OF_ASC_NODE":"22.3645","NORAD_CAT_ID":"52294","MEAN_ANOMALY":"303.9381","DECAY_DATE":null},{"COUNTRY_CODE":"US","ECCENTRICITY":"0.00019840","MEAN_MOTION_DOT":"0.00017701","PERIOD":"95.443","SEMIMAJOR_AXIS":"6918.166","MEAN_ELEMENT_THEORY":"SGP4","GP_ID":"213072183","PERIAPSIS":"538.658","SITE":"AFETR","REF_FRAME":"TEME","CENTER_NAME":"EARTH","OBJECT_ID":"2022-041AL","TLE_LINE1":"1 52295U 22041AL  22263.37931102  .00017701  00000-0  11303-2 0  9999","ARG_OF_PERICENTER":"62.5613","OBJECT_NAME":"STARLINK-3765","MEAN_MOTION":"15.08746630","FILE":"3578736","ELEMENT_SET_NO":"999","INCLINATION":"53.2179","RCS_SIZE":"LARGE","EPOCH":"2022-09-20T09:06:12.472128","APOAPSIS":"541.403","MEAN_MOTION_DDOT":"0.0000000000000","TIME_SYSTEM":"UTC","REV_AT_EPOCH":"2333","EPHEMERIS_TYPE":"0","LAUNCH_DATE":"2022-04-21","CLASSIFICATION_TYPE":"U","RA_OF_ASC_NODE":"23.7978","OBJECT_TYPE":"PAYLOAD","NORAD_CAT_ID":"52295","MEAN_ANOMALY":"297.5581","DECAY_DATE":null,"BSTAR":"0.00113030000000","TLE_LINE2":"2 52295  53.2179  23.7978 0001984  62.5613 297.5581 15.08746630 23331"},{"EPHEMERIS_TYPE":"0","LAUNCH_DATE":"2022-04-21","REV_AT_EPOCH":"2462","NORAD_CAT_ID":"52296","OBJECT_TYPE":"PAYLOAD","RA_OF_ASC_NODE":"21.8217","CLASSIFICATION_TYPE":"U","DECAY_DATE":null,"MEAN_ANOMALY":"296.3541","BSTAR":"-0.00009381800000","TLE_LINE2":"2 52296  53.2218  21.8217 0001556  63.7611 296.3541 15.08839123 24623","FILE":"3578857","MEAN_MOTION":"15.08839123","ELEMENT_SET_NO":"999","INCLINATION":"53.2218","RCS_SIZE":"LARGE","MEAN_MOTION_DDOT":"0.0000000000000","APOAPSIS":"540.824","TIME_SYSTEM":"UTC","EPOCH":"2022-09-20T19:42:06.154848","SITE":"AFETR","REF_FRAME":"TEME","CENTER_NAME":"EARTH","ARG_OF_PERICENTER":"63.7611","OBJECT_NAME":"STARLINK-3766","TLE_LINE1":"1 52296U 22041AM  22263.82090457 -.00001781  00000-0 -93818-4 0  9995","OBJECT_ID":"2022-041AM","ECCENTRICITY":"0.00015560","COUNTRY_CODE":"US","MEAN_MOTION_DOT":"-0.00001781","SEMIMAJOR_AXIS":"6917.883","MEAN_ELEMENT_THEORY":"SGP4","PERIOD":"95.438","GP_ID":"213099203","PERIAPSIS":"538.672"},{"INCLINATION":"53.2191","MEAN_MOTION":"15.08842842","FILE":"3578945","ELEMENT_SET_NO":"999","APOAPSIS":"540.912","RCS_SIZE":"LARGE","MEAN_MOTION_DDOT":"0.0000000000000","EPOCH":"2022-09-20T15:22:26.290848","TIME_SYSTEM":"UTC","REV_AT_EPOCH":"2337","EPHEMERIS_TYPE":"0","LAUNCH_DATE":"2022-04-21","BSTAR":"0.00001121700000","TLE_LINE2":"2 52297  53.2191  22.6295 0001699  58.5603 301.5555 15.08842842 23377","CLASSIFICATION_TYPE":"U","OBJECT_TYPE":"PAYLOAD","NORAD_CAT_ID":"52297","RA_OF_ASC_NODE":"22.6295","MEAN_ANOMALY":"301.5555","DECAY_DATE":null,"PERIOD":"95.437","SEMIMAJOR_AXIS":"6917.872","MEAN_ELEMENT_THEORY":"SGP4","COUNTRY_CODE":"US","ECCENTRICITY":"0.00016990","MEAN_MOTION_DOT":"-0.00000110","PERIAPSIS":"538.561","GP_ID":"213124172","SITE":"AFETR","CENTER_NAME":"EARTH","TLE_LINE1":"1 52297U 22041AN  22263.64058207 -.00000110  00000-0  11217-4 0  9990","OBJECT_ID":"2022-041AN","OBJECT_NAME":"STARLINK-3758","ARG_OF_PERICENTER":"58.5603","REF_FRAME":"TEME"},{"SITE":"AFETR","REF_FRAME":"TEME","OBJECT_ID":"2022-041AP","TLE_LINE1":"1 52298U 22041AP  22263.35354940 -.00000977  00000-0 -43282-4 0  9991","ARG_OF_PERICENTER":"39.1801","OBJECT_NAME":"STARLINK-3760","CENTER_NAME":"EARTH","MEAN_MOTION_DOT":"-0.00000977","COUNTRY_CODE":"US","ECCENTRICITY":"0.00014900","PERIOD":"95.438","MEAN_ELEMENT_THEORY":"SGP4","SEMIMAJOR_AXIS":"6917.892","GP_ID":"213073422","PERIAPSIS":"538.726","REV_AT_EPOCH":"2333","EPHEMERIS_TYPE":"0","LAUNCH_DATE":"2022-04-21","MEAN_ANOMALY":"320.9299","DECAY_DATE":null,"CLASSIFICATION_TYPE":"U","NORAD_CAT_ID":"52298","OBJECT_TYPE":"PAYLOAD","RA_OF_ASC_NODE":"23.9179","TLE_LINE2":"2 52298  53.2224  23.9179 0001490  39.1801 320.9299 15.08836244 23339","BSTAR":"-0.00004328200000","ELEMENT_SET_NO":"999","MEAN_MOTION":"15.08836244","FILE":"3578736","INCLINATION":"53.2224","RCS_SIZE":"LARGE","MEAN_MOTION_DDOT":"0.0000000000000","APOAPSIS":"540.788","TIME_SYSTEM":"UTC","EPOCH":"2022-09-20T08:29:06.668160"},{"BSTAR":"-0.00008380700000","TLE_LINE2":"2 52299  53.2199  23.8788 0001386  77.2998 282.8149 15.08842306 23336","OBJECT_TYPE":"PAYLOAD","NORAD_CAT_ID":"52299","RA_OF_ASC_NODE":"23.8788","CLASSIFICATION_TYPE":"U","DECAY_DATE":null,"MEAN_ANOMALY":"282.8149","EPHEMERIS_TYPE":"0","LAUNCH_DATE":"2022-04-21","REV_AT_EPOCH":"2333","MEAN_MOTION_DDOT":"0.0000000000000","RCS_SIZE":"LARGE","APOAPSIS":"540.697","EPOCH":"2022-09-20T08:39:42.382944","TIME_SYSTEM":"UTC","INCLINATION":"53.2199","FILE":"3578736","MEAN_MOTION":"15.08842306","ELEMENT_SET_NO":"999","CENTER_NAME":"EARTH","ARG_OF_PERICENTER":"77.2998","OBJECT_NAME":"STARLINK-3759","OBJECT_ID":"2022-041AQ","TLE_LINE1":"1 52299U 22041AQ  22263.36090721 -.00001622  00000-0 -83807-4 0  9992","REF_FRAME":"TEME","SITE":"AFETR","PERIAPSIS":"538.780","GP_ID":"213071684","MEAN_ELEMENT_THEORY":"SGP4","SEMIMAJOR_AXIS":"6917.873","PERIOD":"95.437","ECCENTRICITY":"0.00013860","COUNTRY_CODE":"US","MEAN_MOTION_DOT":"-0.00001622"},{"REF_FRAME":"TEME","OBJECT_NAME":"STARLINK-3769","ARG_OF_PERICENTER":"55.8807","OBJECT_ID":"2022-041AR","TLE_LINE1":"1 52300U 22041AR  22263.34618955 -.00000528  00000-0 -15082-4 0  9992","CENTER_NAME":"EARTH","SITE":"AFETR","GP_ID":"213072435","PERIAPSIS":"538.703","MEAN_MOTION_DOT":"-0.00000528","ECCENTRICITY":"0.00015530","COUNTRY_CODE":"US","SEMIMAJOR_AXIS":"6917.912","MEAN_ELEMENT_THEORY":"SGP4","PERIOD":"95.438","DECAY_DATE":null,"MEAN_ANOMALY":"304.2333","RA_OF_ASC_NODE":"23.9516","OBJECT_TYPE":"PAYLOAD","NORAD_CAT_ID":"52300","CLASSIFICATION_TYPE":"U","TLE_LINE2":"2 52300  53.2205  23.9516 0001553  55.8807 304.2333 15.08829556 24555","BSTAR":"-0.00001508200000","LAUNCH_DATE":"2022-04-21","EPHEMERIS_TYPE":"0","REV_AT_EPOCH":"2455","APOAPSIS":"540.852","RCS_SIZE":"LARGE","MEAN_MOTION_DDOT":"0.0000000000000","EPOCH":"2022-09-20T08:18:30.777120","TIME_SYSTEM":"UTC","ELEMENT_SET_NO":"999","FILE":"3578736","MEAN_MOTION":"15.08829556","INCLINATION":"53.2205"},{"REV_AT_EPOCH":"2338","EPHEMERIS_TYPE":"0","LAUNCH_DATE":"2022-04-21","MEAN_ANOMALY":"305.0686","DECAY_DATE":null,"CLASSIFICATION_TYPE":"U","OBJECT_TYPE":"PAYLOAD","NORAD_CAT_ID":"52301","RA_OF_ASC_NODE":"22.3816","TLE_LINE2":"2 52301  53.2214  22.3816 0001567  55.0453 305.0686 15.08841924 23389","BSTAR":"-0.00004757200000","ELEMENT_SET_NO":"999","MEAN_MOTION":"15.08841924","FILE":"3578945","INCLINATION":"53.2214","RCS_SIZE":"LARGE","APOAPSIS":"540.824","MEAN_MOTION_DDOT":"0.0000000000000","TIME_SYSTEM":"UTC","EPOCH":"2022-09-20T16:41:55.743648","SITE":"AFETR","REF_FRAME":"TEME","OBJECT_ID":"2022-041AS","TLE_LINE1":"1 52301U 22041AS  22263.69578407 -.00001045  00000-0 -47572-4 0  9992","OBJECT_NAME":"STARLINK-3768","ARG_OF_PERICENTER":"55.0453","CENTER_NAME":"EARTH","MEAN_MOTION_DOT":"-0.00001045","COUNTRY_CODE":"US","ECCENTRICITY":"0.00015670","PERIOD":"95.437","SEMIMAJOR_AXIS":"6917.875","MEAN_ELEMENT_THEORY":"SGP4","GP_ID":"213123673","PERIAPSIS":"538.655"},{"RCS_SIZE":"LARGE","TIME_SYSTEM":"UTC","APOAPSIS":"545.870","MEAN_MOTION_DDOT":"0.0000000000000","EPOCH":"2022-09-20T19:02:11.314464","ELEMENT_SET_NO":"999","MEAN_MOTION":"15.07212459","FILE":"3578945","INCLINATION":"53.2179","MEAN_ANOMALY":"304.9673","DECAY_DATE":null,"CLASSIFICATION_TYPE":"U","OBJECT_TYPE":"PAYLOAD","RA_OF_ASC_NODE":"11.8796","NORAD_CAT_ID":"52302","TLE_LINE2":"2 52302  53.2179  11.8796 0001654  55.1474 304.9673 15.07212459 23536","BSTAR":"0.00006283500000","REV_AT_EPOCH":"2353","LAUNCH_DATE":"2022-04-21","EPHEMERIS_TYPE":"0","GP_ID":"213124423","PERIAPSIS":"543.580","MEAN_MOTION_DOT":"0.00000673","COUNTRY_CODE":"US","ECCENTRICITY":"0.00016540","PERIOD":"95.541","SEMIMAJOR_AXIS":"6922.860","MEAN_ELEMENT_THEORY":"SGP4","REF_FRAME":"TEME","OBJECT_ID":"2022-041AT","TLE_LINE1":"1 52302U 22041AT  22263.79318651  .00000673  00000-0  62835-4 0  9990","ARG_OF_PERICENTER":"55.1474","OBJECT_NAME":"STARLINK-3564","CENTER_NAME":"EARTH","SITE":"AFETR"}];
